satname,norad_id,inclination_deg,eccentricity,mean_motion_rev_per_day,perigee_km,apogee_km,l1,l2
STARLINK-1337,45582,53.0531,0.0001905,15.06399526,545.8937315033554,548.5322898574241,1 45582U 20025BD  25326.80073744  .00000132  00000+0  27777-4 0  9993,2 45582  53.0531 196.4635 0001905 115.9565 244.1620 15.06399526309393
STARLINK-1347,45586,53.0509,0.0009452,15.34867298,454.85003473561665,467.77933419993496,1 45586U 20025BH  25326.74643041  .00102093  00000+0  29441-2 0  9990,2 45586  53.0509 178.0151 0009452  91.9483 268.2601 15.34867298309649
STARLINK-1360,45588,53.0426,0.0001973,15.81649067,324.45412134846083,327.099485735338,1 45588U 20025BK  25326.91668980  .00127208  00000+0  61600-3 0  9999,2 45588  53.0426  88.5151 0001973 286.6237 331.3874 15.81649067  5948
STARLINK-1364,45589,53.0545,0.0001559,15.06412534,546.093487448522,548.2527991512025,1 45589U 20025BL  25326.07459244  .00002613  00000+0  19422-3 0  9995,2 45589  53.0545 199.7250 0001559  84.1168 275.9999 15.06412534309289
STARLINK-1365,45590,53.054,0.0001701,15.06388782,546.0679320679101,548.4239473439984,1 45590U 20025BM  25326.75374120 -.00000539  00000+0 -17294-4 0  9994,2 45590  53.0540 226.6702 0001701  95.1246 264.9937 15.06388782308989
STARLINK-1443,45660,53.0526,0.0001494,15.06414554,546.1323119730805,548.201592794052,1 45660U 20035D   25326.00917394  .00003183  00000+0  23242-3 0  9992,2 45660  53.0526 190.0181 0001494  86.7133 273.4027 15.06414554302500
STARLINK-1446,45663,53.024,0.0001765,15.35797689,457.3454891737829,459.7588404489625,1 45663U 20035G   25326.72786212  .00064736  00000+0  18273-2 0  9995,2 45663  53.0240 145.2164 0001765 139.2590 220.8543 15.35797689303191
STARLINK-1448,45665,53.0522,0.0001645,15.06408843,546.0452401700477,548.3236709289222,1 45665U 20035J   25326.01286667  .00004592  00000+0  32689-3 0  9990,2 45665  53.0522 189.9959 0001645  82.8615 277.2561 15.06408843302498
STARLINK-1451,45668,53.0545,0.0001593,15.0639176,546.1336004182922,548.3400245149442,1 45668U 20035M   25325.88389749 -.00000574  00000+0 -19648-4 0  9991,2 45668  53.0545 190.8947 0001593  87.3860 272.7312 15.06391760302480
STARLINK-1452,45669,53.0381,0.0012739,15.28825923,470.5851726376395,488.05660384530165,1 45669U 20035N   25326.80345611  .00045190  00000+0  15910-2 0  9992,2 45669  53.0381 164.3679 0012739  93.6646 266.5809 15.28825923302932
STARLINK-1453,45670,53.0543,0.000208,15.10281,533.9043272076015,536.7803346092587,1 45670U 20035P   25326.74358251  .00125933  00000+0  74887-2 0  9993,2 45670  53.0543 156.5835 0002080 112.7115 247.4095 15.10281000302920
STARLINK-1454,45671,53.056,0.0001827,15.06394664,545.9626478885939,548.4931762274609,1 45671U 20035Q   25326.76848478  .00000407  00000+0  46257-4 0  9991,2 45671  53.0560 186.6060 0001827 104.6457 255.4734 15.06394664302601
STARLINK-1456,45673,53.0516,0.0001426,15.06402213,546.2172216831368,548.1923291574858,1 45673U 20035S   25326.78322373 -.00001087  00000+0 -54085-4 0  9991,2 45673  53.0516 186.5424 0001426  77.2420 282.8728 15.06402213302626
STARLINK-1457,45674,53.0524,0.0001059,15.43248252,435.8084318839001,437.2517783767671,1 45674U 20035T   25326.79129398  .00049331  00000+0  10950-2 0  9998,2 45674  53.0524 182.9984 0001059  98.3495 261.7630 15.43248252302647
STARLINK-1458,45675,53.053,0.000156,15.06403487,546.120518098267,548.281223513959,1 45675U 20035U   25326.77953684 -.00000015  00000+0  17861-4 0  9997,2 45675  53.0530 186.5582 0001560  81.3815 278.7351 15.06403487302587
STARLINK-1460,45676,53.052,0.0001466,15.06401014,546.193194533068,548.2237058190603,1 45676U 20035V   25326.21927395  .00003311  00000+0  24107-3 0  9998,2 45676  53.0520 189.0711 0001466  88.7678 271.3479 15.06401014302496
STARLINK-1392,45677,53.0541,0.0001946,15.06397502,545.871539639842,548.5668882783148,1 45677U 20035W   25326.76111009  .00000367  00000+0  43517-4 0  9991,2 45677  53.0541 186.6393 0001946  93.7129 266.4083 15.06397502302615
STARLINK-1394,45679,53.0519,0.0001607,15.06396519,546.1093214947314,548.3351319501999,1 45679U 20035Y   25326.75834178 -.00002414  00000+0 -14325-3 0  9992,2 45679  53.0519 176.6513 0001607 111.1038 249.0123 15.06396519302757
STARLINK-1402,45685,53.0511,0.0004452,15.29075109,475.5232415388564,481.62845866058433,1 45685U 20035AE  25326.77735705  .00042738  00000+0  14973-2 0  9996,2 45685  53.0511 165.9649 0004452 151.9603 208.1637 15.29075109302916
STARLINK-1404,45686,53.0536,0.0001745,15.06397123,546.0119006809146,548.4288504049782,1 45686U 20035AF  25326.78415228 -.00000219  00000+0  41967-5 0  9998,2 45686  53.0536 176.5367 0001745  90.0691 270.0498 15.06397123302765
STARLINK-1413,45689,53.0523,0.0001601,15.06387943,546.1397569328883,548.35726537356,1 45689U 20035AJ  25326.80257632  .00003073  00000+0  22520-3 0  9999,2 45689  53.0523 176.4519 0001601  92.2970 267.8202 15.06387943302673
STARLINK-1417,45693,53.0522,0.0001609,15.06623082,545.4137495156747,547.6421066895391,1 45693U 20035AN  25326.79849176  .00017974  00000+0  12151-2 0  9995,2 45693  53.0522 176.4688 0001609  96.5601 263.5571 15.06623082302758
STARLINK-1420,45695,53.0528,0.0001661,15.06392981,546.0827662772181,548.3833742145534,1 45695U 20035AQ  25326.79978907 -.00000365  00000+0 -56149-5 0  9998,2 45695  53.0528 156.4557 0001661  85.1382 274.9797 15.06392981303047
STARLINK-1422,45696,53.0515,0.0001742,15.06401247,546.001341012492,548.4141311185376,1 45696U 20035AR  25326.74359494 -.00000718  00000+0 -29291-4 0  9997,2 45696  53.0515 176.7181 0001742 109.0705 251.0473 15.06401247302746
STARLINK-1351,45697,53.0534,0.0001441,15.06393687,546.2329609262924,548.2288519569283,1 45697U 20035AS  25326.78598936  .00000600  00000+0  59174-4 0  9999,2 45697  53.0534 156.5283 0001441  98.0138 262.1015 15.06393687303047
STARLINK-1398,45699,53.0487,0.0003579,15.55467817,398.36690485091003,403.2192630049858,1 45699U 20035AU  25326.64322613  .00041640  00000+0  60339-3 0  9996,2 45699  53.0487 109.4009 0003579 181.2978 178.8023 15.55467817303694
STARLINK-1400,45700,53.0517,0.0001585,15.06400771,546.1115275634329,548.3068623072268,1 45700U 20035AV  25326.76017977 -.00000096  00000+0  12481-4 0  9993,2 45700  53.0517 156.6409 0001585 101.2176 258.8991 15.06400771303039
STARLINK-1403,45701,53.0525,0.0001619,15.06402971,546.0812398088228,548.3236647234662,1 45701U 20035AW  25326.78968829  .00001685  00000+0  13197-3 0  9995,2 45701  53.0525 156.5130 0001619  89.0117 271.1058 15.06402971303031
STARLINK-1407,45703,53.0399,0.0010862,15.44067086,426.7211611227867,441.5201096098572,1 45703U 20035AY  25326.64255309  .00023136  00000+0  50520-3 0  9990,2 45703  53.0399 110.0607 0010862 129.7559 230.4405 15.44067086303689
STARLINK-1411,45706,53.0503,5.9e-05,15.43873062,434.2894135806737,435.0933273283872,1 45706U 20035BB  25326.78661505  .00039911  00000+0  87030-3 0  9991,2 45706  53.0503 136.5990 0000590 219.1615 140.9347 15.43873062303319
STARLINK-1423,45710,53.0535,0.0001622,15.06394062,546.1064626248271,548.3530516008341,1 45710U 20035BF  25326.74913054  .00000707  00000+0  66376-4 0  9993,2 45710  53.0535 156.6943 0001622  92.7678 267.3497 15.06394062303037
STARLINK-1433,45711,53.0539,0.0001473,15.06396532,546.2020814709595,548.2422922874148,1 45711U 20035BG  25326.79704656  .00000975  00000+0  84340-4 0  9993,2 45711  53.0539 156.4768 0001473  92.9792 267.1366 15.06396532303035
STARLINK-1434,45712,53.0497,0.0007265,15.1689072,510.23641731270436,520.2525005725483,1 45712U 20035BH  25326.74846954  .00025062  00000+0  12676-2 0  9992,2 45712  53.0497 151.3297 0007265 130.1755 229.9876 15.16890720303119
STARLINK-1465,45731,53.0561,0.0001379,15.0641871,546.1992174179668,548.1092127350848,1 45731U 20038B   25326.36577530  .00003328  00000+0  24209-3 0  9992,2 45731  53.0561 358.4107 0001379  95.3719 264.7427 15.06418710300013
STARLINK-1471,45735,53.0509,0.0001395,15.42081425,439.01612413675866,440.91837522241804,1 45735U 20038F   25326.33854025  .00024468  00000+0  57136-3 0  9993,2 45735  53.0509 293.4035 0001395  75.6958 284.4201 15.42081425300930
STARLINK-1474,45738,53.036,0.0004291,15.71251709,352.4292513607261,358.2079029370361,1 45738U 20038J   25326.18517744  .00100897  00000+0  77572-3 0  9990,2 45738  53.0360 247.1091 0004291  74.8317 285.3174 15.71251709301569
STARLINK-1475,45739,53.0418,0.0004929,15.92234728,292.74097899461503,299.3203734898552,1 45739U 20038K   25326.91668980  .00326775  51603-4  95849-3 0  9993,2 45739  53.0418 207.5243 0004929 124.3926 196.2846 15.92234728  6055
STARLINK-1480,45741,53.0551,0.0001354,15.06413445,546.2326646408364,548.108037871556,1 45741U 20038M   25326.34735109  .00002433  00000+0  18213-3 0  9993,2 45741  53.0551 358.4958 0001354  88.1085 272.0059 15.06413445300020
STARLINK-1500,45744,53.041,0.0001471,15.2877308,478.4701535851391,480.4876641855326,1 45744U 20038Q   25326.21199174  .00022590  00000+0  80697-3 0  9999,2 45744  53.0410 334.5516 0001471 333.4130  26.6793 15.28773080300340
STARLINK-1504,45746,53.0277,0.0002475,15.42540619,436.92693016486555,440.3012219475131,1 45746U 20038S   25326.16323417  .00050569  00000+0  11490-2 0  9995,2 45746  53.0277 297.3182 0002475  21.2835 338.8272 15.42540619300859
STARLINK-1506,45747,53.0652,0.0002231,15.2216968,497.76315091315064,500.83186218997434,1 45747U 20038T   25326.32551665  .00013472  00000+0  59278-3 0  9991,2 45747  53.0652 337.5663 0002231 334.8897  25.1990 15.22169680300316
STARLINK-1464,45751,53.0565,0.000135,15.06386194,546.3189438953414,548.1887994306908,1 45751U 20038X   25326.34921976 -.00001133  00000+0 -57202-4 0  9993,2 45751  53.0565 338.4892 0001350  92.0406 268.0738 15.06386194300308
STARLINK-1477,45754,53.0548,0.000374,15.0790598,540.011432437278,545.1881435547002,1 45754U 20038AA  25326.35019981  .00030513  00000+0  19762-2 0  9990,2 45754  53.0548 338.3378 0003740  43.2698 316.8585 15.07905980300309
